{
  "type": "FeatureCollection",
  "features": [
    {
      "type": "Feature",
      "properties": {
        "norad_id": 41890,
        "name": "CYGFM07",
        "group": "weather",
        "lat": 25.045913469305425,
        "lon": 110.82775578485446,
        "alt_km": 416.7659983185795,
        "timestamp": "2025-12-20T03:42:47.035556+00:00",
        "meta_object_name": "CYGFM07",
        "meta_object_id": "2016-078G",
        "meta_epoch": "2025-12-19T08:35:55.881024",
        "meta_mean_motion": 15.50269103,
        "meta_eccentricity": 0.0010122,
        "meta_inclination": 34.9484,
        "meta_ra_of_asc_node": 338.0499,
        "meta_arg_of_pericenter": 271.9138,
        "meta_mean_anomaly": 88.0425,
        "meta_ephemeris_type": 0,
        "meta_classification_type": "U",
        "meta_norad_cat_id": 41890,
        "meta_element_set_no": 999,
        "meta_rev_at_epoch": 50098,
        "meta_bstar": 0.00031348,
        "meta_mean_motion_dot": 0.00018328,
        "meta_mean_motion_ddot": 0,
        "tle_line1": "1 41890U 16078G   25353.35828566  .00018328  00000+0  31348-3 0  9998",
        "tle_line2": "2 41890  34.9484 338.0499 0010122 271.9138  88.0425 15.50269103500980"
      },
      "geometry": {
        "type": "Point",
        "coordinates": [
          110.82775578485446,
          25.045913469305425
        ]
      }
    },
    {
      "type": "Feature",
      "properties": {
        "norad_id": 41891,
        "name": "CYGFM03",
        "group": "weather",
        "lat": -19.484936426539647,
        "lon": -55.696725466901746,
        "alt_km": 413.6088941353037,
        "timestamp": "2025-12-20T03:42:47.035567+00:00",
        "meta_object_name": "CYGFM03",
        "meta_object_id": "2016-078H",
        "meta_epoch": "2025-12-19T09:19:08.109120",
        "meta_mean_motion": 15.50167103,
        "meta_eccentricity": 0.0009679,
        "meta_inclination": 34.9439,
        "meta_ra_of_asc_node": 339.7759,
        "meta_arg_of_pericenter": 260.0765,
        "meta_mean_anomaly": 99.8864,
        "meta_ephemeris_type": 0,
        "meta_classification_type": "U",
        "meta_norad_cat_id": 41891,
        "meta_element_set_no": 999,
        "meta_rev_at_epoch": 50096,
        "meta_bstar": 0.0003054,
        "meta_mean_motion_dot": 0.00017785,
        "meta_mean_motion_ddot": 0,
        "tle_line1": "1 41891U 16078H   25353.38828830  .00017785  00000+0  30540-3 0  9995",
        "tle_line2": "2 41891  34.9439 339.7759 0009679 260.0765  99.8864 15.50167103500960"
      },
      "geometry": {
        "type": "Point",
        "coordinates": [
          -55.696725466901746,
          -19.484936426539647
        ]
      }
    },
    {
      "type": "Feature",
      "properties": {
        "norad_id": 43010,
        "name": "FENGYUN 3D",
        "group": "weather",
        "lat": 78.80793337576135,
        "lon": -92.55677162964292,
        "alt_km": 818.8009313342745,
        "timestamp": "2025-12-20T03:42:47.035578+00:00",
        "meta_object_name": "FENGYUN 3D",
        "meta_object_id": "2017-072A",
        "meta_epoch": "2025-12-19T18:51:53.159616",
        "meta_mean_motion": 14.19684655,
        "meta_eccentricity": 0.0001309,
        "meta_inclination": 98.9893,
        "meta_ra_of_asc_node": 320.2014,
        "meta_arg_of_pericenter": 159.1228,
        "meta_mean_anomaly": 201.0001,
        "meta_ephemeris_type": 0,
        "meta_classification_type": "U",
        "meta_norad_cat_id": 43010,
        "meta_element_set_no": 999,
        "meta_rev_at_epoch": 41953,
        "meta_bstar": -0.00014027,
        "meta_mean_motion_dot": -3.43e-06,
        "meta_mean_motion_ddot": 0,
        "tle_line1": "1 43010U 17072A   25353.78603194 -.00000343  00000+0 -14027-3 0  9999",
        "tle_line2": "2 43010  98.9893 320.2014 0001309 159.1228 201.0001 14.19684655419534"
      },
      "geometry": {
        "type": "Point",
        "coordinates": [
          -92.55677162964292,
          78.80793337576135
        ]
      }
    },
    {
      "type": "Feature",
      "properties": {
        "norad_id": 43013,
        "name": "NOAA 20 (JPSS-1)",
        "group": "weather",
        "lat": -50.566987926546965,
        "lon": 99.56284049082981,
        "alt_km": 835.2136433645101,
        "timestamp": "2025-12-20T03:42:47.035589+00:00",
        "meta_object_name": "NOAA 20 (JPSS-1)",
        "meta_object_id": "2017-073A",
        "meta_epoch": "2025-12-19T18:10:06.699072",
        "meta_mean_motion": 14.19527449,
        "meta_eccentricity": 0.0002123,
        "meta_inclination": 98.7608,
        "meta_ra_of_asc_node": 289.9772,
        "meta_arg_of_pericenter": 77.1387,
        "meta_mean_anomaly": 283.0026,
        "meta_ephemeris_type": 0,
        "meta_classification_type": "U",
        "meta_norad_cat_id": 43013,
        "meta_element_set_no": 999,
        "meta_rev_at_epoch": 41901,
        "meta_bstar": 4.0225e-05,
        "meta_mean_motion_dot": 4.1e-07,
        "meta_mean_motion_ddot": 0,
        "tle_line1": "1 43013U 17073A   25353.75702198  .00000041  00000+0  40225-4 0  9997",
        "tle_line2": "2 43013  98.7608 289.9772 0002123  77.1387 283.0026 14.19527449419018"
      },
      "geometry": {
        "type": "Point",
        "coordinates": [
          99.56284049082981,
          -50.566987926546965
        ]
      }
    },
    {
      "type": "Feature",
      "properties": {
        "norad_id": 43226,
        "name": "GOES 17",
        "group": "weather",
        "lat": -0.2412214830108388,
        "lon": 55.20159523246665,
        "alt_km": 35795.610618319035,
        "timestamp": "2025-12-20T03:42:47.035615+00:00",
        "meta_object_name": "GOES 17",
        "meta_object_id": "2018-022A",
        "meta_epoch": "2025-12-19T11:26:17.750976",
        "meta_mean_motion": 1.00270964,
        "meta_eccentricity": 0.0003082,
        "meta_inclination": 0.474,
        "meta_ra_of_asc_node": 89.1739,
        "meta_arg_of_pericenter": 191.1693,
        "meta_mean_anomaly": 250.0534,
        "meta_ephemeris_type": 0,
        "meta_classification_type": "U",
        "meta_norad_cat_id": 43226,
        "meta_element_set_no": 999,
        "meta_rev_at_epoch": 2862,
        "meta_bstar": 0,
        "meta_mean_motion_dot": -1.58e-06,
        "meta_mean_motion_ddot": 0,
        "tle_line1": "1 43226U 18022A   25353.47659434 -.00000158  00000+0  00000+0 0  9993",
        "tle_line2": "2 43226   0.4740  89.1739 0003082 191.1693 250.0534  1.00270964 28620"
      },
      "geometry": {
        "type": "Point",
        "coordinates": [
          55.20159523246665,
          -0.2412214830108388
        ]
      }
    },
    {
      "type": "Feature",
      "properties": {
        "norad_id": 43491,
        "name": "FENGYUN 2H",
        "group": "weather",
        "lat": 1.534797913626043,
        "lon": -135.94766508227062,
        "alt_km": 35776.74412653414,
        "timestamp": "2025-12-20T03:42:47.035632+00:00",
        "meta_object_name": "FENGYUN 2H",
        "meta_object_id": "2018-050A",
        "meta_epoch": "2025-12-19T20:29:17.903616",
        "meta_mean_motion": 1.00271278,
        "meta_eccentricity": 0.0002387,
        "meta_inclination": 2.5685,
        "meta_ra_of_asc_node": 81.2551,
        "meta_arg_of_pericenter": 165.7305,
        "meta_mean_anomaly": 228.3876,
        "meta_ephemeris_type": 0,
        "meta_classification_type": "U",
        "meta_norad_cat_id": 43491,
        "meta_element_set_no": 999,
        "meta_rev_at_epoch": 2764,
        "meta_bstar": 0,
        "meta_mean_motion_dot": -1.08e-06,
        "meta_mean_motion_ddot": 0,
        "tle_line1": "1 43491U 18050A   25353.85367944 -.00000108  00000+0  00000+0 0  9997",
        "tle_line2": "2 43491   2.5685  81.2551 0002387 165.7305 228.3876  1.00271278 27641"
      },
      "geometry": {
        "type": "Point",
        "coordinates": [
          -135.94766508227062,
          1.534797913626043
        ]
      }
    },
    {
      "type": "Feature",
      "properties": {
        "norad_id": 43689,
        "name": "METOP-C",
        "group": "weather",
        "lat": 63.11682306947984,
        "lon": 34.247499407719594,
        "alt_km": 813.6297750822278,
        "timestamp": "2025-12-20T03:42:47.035644+00:00",
        "meta_object_name": "METOP-C",
        "meta_object_id": "2018-087A",
        "meta_epoch": "2025-12-19T18:57:51.568416",
        "meta_mean_motion": 14.2148694,
        "meta_eccentricity": 9.06e-05,
        "meta_inclination": 98.692,
        "meta_ra_of_asc_node": 51.4515,
        "meta_arg_of_pericenter": 27.4017,
        "meta_mean_anomaly": 332.7208,
        "meta_ephemeris_type": 0,
        "meta_classification_type": "U",
        "meta_norad_cat_id": 43689,
        "meta_element_set_no": 999,
        "meta_rev_at_epoch": 36934,
        "meta_bstar": 6.5062e-05,
        "meta_mean_motion_dot": 9.9e-07,
        "meta_mean_motion_ddot": 0,
        "tle_line1": "1 43689U 18087A   25353.79018019  .00000099  00000+0  65062-4 0  9997",
        "tle_line2": "2 43689  98.6920  51.4515 0000906  27.4017 332.7208 14.21486940369342"
      },
      "geometry": {
        "type": "Point",
        "coordinates": [
          34.247499407719594,
          63.11682306947984
        ]
      }
    }
  ]
}